TEVEL2-2                
1 63219U 25052K   26068.64848259  .00020339  00000+0  69428-3 0  9991
2 63219  97.3987 324.7700 0004693 105.7930 254.3828 15.30343745 54855
STARLINK-34300          
1 64218U 25117R   26068.19761232  .00037202  00000+0  12626-2 0  9992
2 64218  53.1610  41.6565 0001255  91.9459 268.1686 15.30181729 44457
